CCSDS_OMM_VERS = 2.0
CREATION_DATE  = 
ORIGINATOR     = 

OBJECT_NAME    = SL-16 R/B
OBJECT_ID      = 1993-016B
CENTER_NAME    = EARTH
REF_FRAME      = TEME
TIME_SYSTEM    = UTC
MEAN_ELEMENT_THEORY = SGP/SGP4

EPOCH          = 2026-03-01T22:26:04.139232
MEAN_MOTION    = 14.15303944
ECCENTRICITY   = .00112518
INCLINATION    = 71.0054
RA_OF_ASC_NODE = 231.4691
ARG_OF_PERICENTER = 325.1051
MEAN_ANOMALY   = 34.9333

EPHEMERIS_TYPE = 0
CLASSIFICATION_TYPE = U
NORAD_CAT_ID   = 22566
ELEMENT_SET_NO = 999
REV_AT_EPOCH   = 70107
BSTAR          = .19643038E-3
MEAN_MOTION_DOT = .335E-5
MEAN_MOTION_DDOT = 0

CCSDS_OMM_VERS = 2.0
CREATION_DATE  = 
ORIGINATOR     = 

OBJECT_NAME    = COSMOS 2242
OBJECT_ID      = 1993-024A
CENTER_NAME    = EARTH
REF_FRAME      = TEME
TIME_SYSTEM    = UTC
MEAN_ELEMENT_THEORY = SGP/SGP4

EPOCH          = 2026-03-01T22:43:13.475136
MEAN_MOTION    = 14.96511420
ECCENTRICITY   = .00157737
INCLINATION    = 82.5159
RA_OF_ASC_NODE = 274.1245
ARG_OF_PERICENTER = 336.6062
MEAN_ANOMALY   = 23.4440

EPHEMERIS_TYPE = 0
CLASSIFICATION_TYPE = U
NORAD_CAT_ID   = 22626
ELEMENT_SET_NO = 999
REV_AT_EPOCH   = 77923
BSTAR          = .18148773E-3
MEAN_MOTION_DOT = .2092E-4
MEAN_MOTION_DDOT = 0

CCSDS_OMM_VERS = 2.0
CREATION_DATE  = 
ORIGINATOR     = 

OBJECT_NAME    = SL-16 R/B
OBJECT_ID      = 1993-059B
CENTER_NAME    = EARTH
REF_FRAME      = TEME
TIME_SYSTEM    = UTC
MEAN_ELEMENT_THEORY = SGP/SGP4

EPOCH          = 2026-03-01T22:11:35.314656
MEAN_MOTION    = 14.17231699
ECCENTRICITY   = .00188482
INCLINATION    = 70.9915
RA_OF_ASC_NODE = 27.4999
ARG_OF_PERICENTER = 227.4174
MEAN_ANOMALY   = 132.5360

EPHEMERIS_TYPE = 0
CLASSIFICATION_TYPE = U
NORAD_CAT_ID   = 22803
ELEMENT_SET_NO = 999
REV_AT_EPOCH   = 67843
BSTAR          = .88664226E-4
MEAN_MOTION_DOT = .131E-5
MEAN_MOTION_DDOT = 0

CCSDS_OMM_VERS = 2.0
CREATION_DATE  = 
ORIGINATOR     = 

OBJECT_NAME    = ARIANE 40 R/B
OBJECT_ID      = 1993-061H
CENTER_NAME    = EARTH
REF_FRAME      = TEME
TIME_SYSTEM    = UTC
MEAN_ELEMENT_THEORY = SGP/SGP4

EPOCH          = 2026-03-01T19:23:06.742752
MEAN_MOTION    = 14.32856086
ECCENTRICITY   = .00096907
INCLINATION    = 98.4934
RA_OF_ASC_NODE = 129.8505
ARG_OF_PERICENTER = 311.1917
MEAN_ANOMALY   = 48.8431

EPHEMERIS_TYPE = 0
CLASSIFICATION_TYPE = U
NORAD_CAT_ID   = 22830
ELEMENT_SET_NO = 999
REV_AT_EPOCH   = 69297
BSTAR          = .10378302E-3
MEAN_MOTION_DOT = .24E-5
MEAN_MOTION_DDOT = 0

CCSDS_OMM_VERS = 2.0
CREATION_DATE  = 
ORIGINATOR     = 

OBJECT_NAME    = COSMOS 2278
OBJECT_ID      = 1994-023A
CENTER_NAME    = EARTH
REF_FRAME      = TEME
TIME_SYSTEM    = UTC
MEAN_ELEMENT_THEORY = SGP/SGP4

EPOCH          = 2026-03-01T19:38:04.480224
MEAN_MOTION    = 14.14374158
ECCENTRICITY   = .00075856
INCLINATION    = 71.0538
RA_OF_ASC_NODE = 191.5641
ARG_OF_PERICENTER = 29.3056
MEAN_ANOMALY   = 330.8491

EPHEMERIS_TYPE = 0
CLASSIFICATION_TYPE = U
NORAD_CAT_ID   = 23087
ELEMENT_SET_NO = 999
REV_AT_EPOCH   = 64369
BSTAR          = .20828722E-3
MEAN_MOTION_DOT = .352E-5
MEAN_MOTION_DDOT = 0

CCSDS_OMM_VERS = 2.0
CREATION_DATE  = 
ORIGINATOR     = 

OBJECT_NAME    = SL-16 R/B
OBJECT_ID      = 1994-023B
CENTER_NAME    = EARTH
REF_FRAME      = TEME
TIME_SYSTEM    = UTC
MEAN_ELEMENT_THEORY = SGP/SGP4

EPOCH          = 2026-03-01T19:08:17.532096
MEAN_MOTION    = 14.15013477
ECCENTRICITY   = .00055328
INCLINATION    = 70.9986
RA_OF_ASC_NODE = 87.4630
ARG_OF_PERICENTER = 293.2536
MEAN_ANOMALY   = 66.8004

EPHEMERIS_TYPE = 0
CLASSIFICATION_TYPE = U
NORAD_CAT_ID   = 23088
ELEMENT_SET_NO = 999
REV_AT_EPOCH   = 64497
BSTAR          = .773631E-6
MEAN_MOTION_DOT = -.46E-6
MEAN_MOTION_DDOT = 0

CCSDS_OMM_VERS = 2.0
CREATION_DATE  = 
ORIGINATOR     = 

OBJECT_NAME    = SL-16 R/B
OBJECT_ID      = 1994-074B
CENTER_NAME    = EARTH
REF_FRAME      = TEME
TIME_SYSTEM    = UTC
MEAN_ELEMENT_THEORY = SGP/SGP4

EPOCH          = 2026-03-01T22:53:57.768576
MEAN_MOTION    = 14.79397237
ECCENTRICITY   = .00052963
INCLINATION    = 97.7119
RA_OF_ASC_NODE = 92.0849
ARG_OF_PERICENTER = 240.3654
MEAN_ANOMALY   = 215.5254

EPHEMERIS_TYPE = 0
CLASSIFICATION_TYPE = U
NORAD_CAT_ID   = 23343
ELEMENT_SET_NO = 999
REV_AT_EPOCH   = 68610
BSTAR          = .81980886E-4
MEAN_MOTION_DOT = .562E-5
MEAN_MOTION_DDOT = 0

CCSDS_OMM_VERS = 2.0
CREATION_DATE  = 
ORIGINATOR     = 

OBJECT_NAME    = SL-16 R/B
OBJECT_ID      = 1994-077B
CENTER_NAME    = EARTH
REF_FRAME      = TEME
TIME_SYSTEM    = UTC
MEAN_ELEMENT_THEORY = SGP/SGP4

EPOCH          = 2026-03-01T22:09:45.240192
MEAN_MOTION    = 14.15562844
ECCENTRICITY   = .00035175
INCLINATION    = 70.9849
RA_OF_ASC_NODE = 8.8260
ARG_OF_PERICENTER = 222.2578
MEAN_ANOMALY   = 137.8274

EPHEMERIS_TYPE = 0
CLASSIFICATION_TYPE = U
NORAD_CAT_ID   = 23405
ELEMENT_SET_NO = 999
REV_AT_EPOCH   = 61513
BSTAR          = -.1022203E-3
MEAN_MOTION_DOT = -.248E-5
MEAN_MOTION_DDOT = 0

CCSDS_OMM_VERS = 2.0
CREATION_DATE  = 
ORIGINATOR     = 

OBJECT_NAME    = ARIANE 40+ R/B
OBJECT_ID      = 1995-021B
CENTER_NAME    = EARTH
REF_FRAME      = TEME
TIME_SYSTEM    = UTC
MEAN_ELEMENT_THEORY = SGP/SGP4

EPOCH          = 2026-03-01T20:02:32.345376
MEAN_MOTION    = 14.39765689
ECCENTRICITY   = .00073132
INCLINATION    = 98.4514
RA_OF_ASC_NODE = 132.4236
ARG_OF_PERICENTER = 157.3320
MEAN_ANOMALY   = 317.1257

EPHEMERIS_TYPE = 0
CLASSIFICATION_TYPE = U
NORAD_CAT_ID   = 23561
ELEMENT_SET_NO = 999
REV_AT_EPOCH   = 61811
BSTAR          = .11988366E-3
MEAN_MOTION_DOT = .332E-5
MEAN_MOTION_DDOT = 0

CCSDS_OMM_VERS = 2.0
CREATION_DATE  = 
ORIGINATOR     = 

OBJECT_NAME    = SL-16 R/B
OBJECT_ID      = 1995-058B
CENTER_NAME    = EARTH
REF_FRAME      = TEME
TIME_SYSTEM    = UTC
MEAN_ELEMENT_THEORY = SGP/SGP4

EPOCH          = 2026-03-01T18:55:45.074496
MEAN_MOTION    = 14.15492777
ECCENTRICITY   = .00110604
INCLINATION    = 71.0208
RA_OF_ASC_NODE = 196.8413
ARG_OF_PERICENTER = 139.7572
MEAN_ANOMALY   = 220.4372

EPHEMERIS_TYPE = 0
CLASSIFICATION_TYPE = U
NORAD_CAT_ID   = 23705
ELEMENT_SET_NO = 999
REV_AT_EPOCH   = 56673
BSTAR          = -.37092251E-4
MEAN_MOTION_DOT = -.12E-5
MEAN_MOTION_DDOT = 0

CCSDS_OMM_VERS = 2.0
CREATION_DATE  = 
ORIGINATOR     = 

OBJECT_NAME    = SL-16 R/B
OBJECT_ID      = 1996-051B
CENTER_NAME    = EARTH
REF_FRAME      = TEME
TIME_SYSTEM    = UTC
MEAN_ELEMENT_THEORY = SGP/SGP4

EPOCH          = 2026-03-01T19:25:05.312928
MEAN_MOTION    = 14.12413245
ECCENTRICITY   = .00157933
INCLINATION    = 70.7592
RA_OF_ASC_NODE = 191.9176
ARG_OF_PERICENTER = 159.5684
MEAN_ANOMALY   = 200.6071

EPHEMERIS_TYPE = 0
CLASSIFICATION_TYPE = U
NORAD_CAT_ID   = 24298
ELEMENT_SET_NO = 999
REV_AT_EPOCH   = 52053
BSTAR          = .67097407E-4
MEAN_MOTION_DOT = .75E-6
MEAN_MOTION_DDOT = 0

CCSDS_OMM_VERS = 2.0
CREATION_DATE  = 
ORIGINATOR     = 

OBJECT_NAME    = ORBVIEW 2 (SEASTAR)
OBJECT_ID      = 1997-037A
CENTER_NAME    = EARTH
REF_FRAME      = TEME
TIME_SYSTEM    = UTC
MEAN_ELEMENT_THEORY = SGP/SGP4

EPOCH          = 2026-03-01T23:02:02.729184
MEAN_MOTION    = 14.35487801
ECCENTRICITY   = .00031936
INCLINATION    = 98.8553
RA_OF_ASC_NODE = 225.0674
ARG_OF_PERICENTER = 87.4836
MEAN_ANOMALY   = 272.6714

EPHEMERIS_TYPE = 0
CLASSIFICATION_TYPE = U
NORAD_CAT_ID   = 24883
ELEMENT_SET_NO = 999
REV_AT_EPOCH   = 50736
BSTAR          = .14270834E-3
MEAN_MOTION_DOT = .364E-5
MEAN_MOTION_DDOT = 0

