SL-16 R/B               
1 22566U 93016B   26060.93477013  .00000335  00000+0  19643-3 0  9994
2 22566  71.0054 231.4691 0011251 325.1051  34.9333 14.15303944701077
COSMOS 2242             
1 22626U 93024A   26060.94668374  .00002092  00000+0  18149-3 0  9995
2 22626  82.5159 274.1245 0015773 336.6062  23.4440 14.96511420779232
SL-16 R/B               
1 22803U 93059B   26060.92471429  .00000131  00000+0  88664-4 0  9993
2 22803  70.9915  27.4999 0018848 227.4174 132.5360 14.17231699678435
ARIANE 40 R/B           
1 22830U 93061H   26060.80771693  .00000240  00000+0  10378-3 0  9996
2 22830  98.4934 129.8505 0009690 311.1917  48.8431 14.32856086692975
COSMOS 2278             
1 23087U 94023A   26060.81810741  .00000352  00000+0  20829-3 0  9995
2 23087  71.0538 191.5641 0007585  29.3056 330.8491 14.14374158643697
SL-16 R/B               
1 23088U 94023B   26060.79742514 -.00000046  00000+0  77363-6 0  9994
2 23088  70.9986  87.4630 0005532 293.2536  66.8004 14.15013477644972
SL-16 R/B               
1 23343U 94074B   26060.95414084  .00000562  00000+0  81981-4 0  9991
2 23343  97.7119  92.0849 0005296 240.3654 215.5254 14.79397237686106
SL-16 R/B               
1 23405U 94077B   26060.92344028 -.00000248  00000+0 -10222-3 0  9992
2 23405  70.9849   8.8260 0003517 222.2578 137.8274 14.15562844615139
ARIANE 40+ R/B          
1 23561U 95021B   26060.83509659  .00000332  00000+0  11988-3 0  9990
2 23561  98.4514 132.4236 0007313 157.3320 317.1257 14.39765689618117
SL-16 R/B               
1 23705U 95058B   26060.78871614 -.00000120  00000+0 -37092-4 0  9999
2 23705  71.0208 196.8413 0011060 139.7572 220.4372 14.15492777566735
SL-16 R/B               
1 24298U 96051B   26060.80908927  .00000075  00000+0  67097-4 0  9997
2 24298  70.7592 191.9176 0015793 159.5684 200.6071 14.12413245520532
ORBVIEW 2 (SEASTAR)     
1 24883U 97037A   26060.95975381  .00000364  00000+0  14271-3 0  9992
2 24883  98.8553 225.0674 0003193  87.4836 272.6714 14.35487801507364
